{
    "links": {
        "self": "http://www.neowsapp.com/rest/v1/neo/3879719?api_key=iIulBulltgU6a56xZRHN4H3l9WmuAYTsLGpBGhQ2"
    },
    "id": "3879719",
    "neo_reference_id": "3879719",
    "name": "(2019 UK6)",
    "designation": "2019 UK6",
    "nasa_jpl_url": "http://ssd.jpl.nasa.gov/sbdb.cgi?sstr=3879719",
    "absolute_magnitude_h": 23.5,
    "estimated_diameter": {
        "kilometers": {
            "estimated_diameter_min": 0.0530340723,
            "estimated_diameter_max": 0.1185877909
        },
        "meters": {
            "estimated_diameter_min": 53.0340723319,
            "estimated_diameter_max": 118.5877908577
        },
        "miles": {
            "estimated_diameter_min": 0.0329538346,
            "estimated_diameter_max": 0.0736870142
        },
        "feet": {
            "estimated_diameter_min": 173.9963058693,
            "estimated_diameter_max": 389.0675677576
        }
    },
    "is_potentially_hazardous_asteroid": false,
    "close_approach_data": [
        {
            "close_approach_date": "2017-12-17",
            "close_approach_date_full": "2017-Dec-17 16:08",
            "epoch_date_close_approach": 1513526880000,
            "relative_velocity": {
                "kilometers_per_second": "2.9559617476",
                "kilometers_per_hour": "10641.4622912102",
                "miles_per_hour": "6612.1908331134"
            },
            "miss_distance": {
                "astronomical": "1.87019755",
                "lunar": "727.50684695",
                "kilometers": "279777569.9592185",
                "miles": "173845720.6394753"
            },
            "orbiting_body": "Juptr"
        },
        {
            "close_approach_date": "2019-11-20",
            "close_approach_date_full": "2019-Nov-20 06:20",
            "epoch_date_close_approach": 1574230800000,
            "relative_velocity": {
                "kilometers_per_second": "7.740202096",
                "kilometers_per_hour": "27864.72754548",
                "miles_per_hour": "17314.0580684679"
            },
            "miss_distance": {
                "astronomical": "0.039458472",
                "lunar": "15.349345608",
                "kilometers": "5902903.36465464",
                "miles": "3667894.068288432"
            },
            "orbiting_body": "Earth"
        },
        {
            "close_approach_date": "2179-01-01",
            "close_approach_date_full": "2179-Jan-01 11:53",
            "epoch_date_close_approach": 6595473180000,
            "relative_velocity": {
                "kilometers_per_second": "19.154000846",
                "kilometers_per_hour": "68954.4030455752",
                "miles_per_hour": "42845.584492402"
            },
            "miss_distance": {
                "astronomical": "0.4100107407",
                "lunar": "159.4941781323",
                "kilometers": "61336733.485842309",
                "miles": "38112878.8704255042"
            },
            "orbiting_body": "Earth"
        }
    ],
    "orbital_data": {
        "orbit_id": "30",
        "orbit_determination_date": "2020-09-11 07:45:30",
        "first_observation_date": "2019-10-24",
        "last_observation_date": "2019-12-25",
        "data_arc_in_days": 62,
        "observations_used": 180,
        "orbit_uncertainty": "6",
        "minimum_orbit_intersection": ".0391307",
        "jupiter_tisserand_invariant": "3.283",
        "epoch_osculation": "2459000.5",
        "eccentricity": ".5730202570724576",
        "semi_major_axis": "2.390727284743155",
        "inclination": "5.341249915267865",
        "ascending_node_longitude": "246.379963632791",
        "orbital_period": "1350.185637690395",
        "perihelion_distance": "1.020792121449494",
        "perihelion_argument": "162.93053729844",
        "aphelion_distance": "3.760662448036817",
        "perihelion_time": "2458801.316586089654",
        "mean_anomaly": "53.10827415582909",
        "mean_motion": ".2666300025349181",
        "equinox": "J2000",
        "orbit_class": {
            "orbit_class_type": "AMO",
            "orbit_class_description": "Near-Earth asteroid orbits similar to that of 1221 Amor",
            "orbit_class_range": "1.017 AU < q (perihelion) < 1.3 AU"
        }
    },
    "is_sentry_object": false
}